[{"OBJECT_NAME":"QIANFAN-51","OBJECT_ID":"2024-232R","EPOCH":"2026-03-09T22:44:29.851872","MEAN_MOTION":13.51004939,"ECCENTRICITY":0.00119779,"INCLINATION":89.0065,"RA_OF_ASC_NODE":32.4358,"ARG_OF_PERICENTER":315.9199,"MEAN_ANOMALY":44.0996,"EPHEMERIS_TYPE":0,"CLASSIFICATION_TYPE":"U","NORAD_CAT_ID":62252,"ELEMENT_SET_NO":999,"REV_AT_EPOCH":7963,"BSTAR":0.000135403,"MEAN_MOTION_DOT":9.9e-7,"MEAN_MOTION_DDOT":0},{"OBJECT_NAME":"THORAD AGENA D DEB","OBJECT_ID":"1970-025EJ","EPOCH":"2026-03-09T11:23:10.346784","MEAN_MOTION":13.57016061,"ECCENTRICITY":0.00179891,"INCLINATION":99.3619,"RA_OF_ASC_NODE":268.2281,"ARG_OF_PERICENTER":70.5877,"MEAN_ANOMALY":350.669,"EPHEMERIS_TYPE":0,"CLASSIFICATION_TYPE":"U","NORAD_CAT_ID":4854,"ELEMENT_SET_NO":999,"REV_AT_EPOCH":75878,"BSTAR":0.00048858098,"MEAN_MOTION_DOT":3.06e-6,"MEAN_MOTION_DDOT":0}]
